SL-14 R/B               
1 16496U 86006B   26068.99149095  .00000811  00000+0  83830-4 0  9999
2 16496  82.5234 259.4531 0075050 271.7582  87.5040 14.86815340149255
COSMOS 1743             
1 16719U 86034A   26069.09149230  .00036090  00000+0  46990-3 0  9994
2 16719  82.5297  73.4092 0001648 291.0253  69.0827 15.58576552180319
SL-14 R/B               
1 16792U 86046B   26069.07674719  .00000562  00000+0  61966-4 0  9997
2 16792  82.4784  79.8160 0021998 223.9980 135.9486 14.85590716126464
SL-14 R/B               
1 16882U 86055B   26069.13376914  .00000499  00000+0  54744-4 0  9995
2 16882  82.5201 126.2569 0018153 334.9966  54.8272 14.85643046119431
AJISAI (EGS)            
1 16908U 86061A   26069.20873465 -.00000100  00000+0 -16640-4 0  9996
2 16908  50.0087  91.7515 0011270 288.3424 192.0942 12.44515638468066
SL-14 R/B               
1 17567U 87024B   26069.11000692  .00000540  00000+0  58787-4 0  9996
2 17567  82.5247  92.3686 0016687 258.3974 101.5369 14.86132444 88194
COSMOS 1833             
1 17589U 87027A   26069.14343508 -.00000178  00000+0 -69432-4 0  9990
2 17589  70.9223 325.0654 0024250 213.9072 146.0500 14.13054713 10384
SL-16 R/B               
1 17590U 87027B   26068.97462516  .00000094  00000+0  70274-4 0  9994
2 17590  71.0012 275.8951 0003434 142.0630 218.0736 14.17165848 15381
SL-14 R/B               
1 17912U 87038B   26069.10519816  .00000515  00000+0  56876-4 0  9996
2 17912  82.5000 296.4165 0019718 159.1105 201.0922 14.85369670 79290
COSMOS 1844             
1 17973U 87041A   26069.10741124 -.00000158  00000+0 -56684-4 0  9998
2 17973  70.8999  33.2934 0030046  17.1208 343.0920 14.14552072  3642
SL-14 R/B               
1 18153U 87055B   26069.21675502  .00000698  00000+0  77508-4 0  9997
2 18153  82.5031 348.5347 0021120  16.0845 344.1037 14.85630376 70016
COSMOS 1867             
1 18187U 87060A   26069.07002527 -.00000006  00000+0  35470-4 0  9991
2 18187  65.0112 305.6406 0014491 278.6825  81.2618 14.31503117 19993
SL-14 R/B               
1 18749U 88001B   26068.80795256  .00000749  00000+0  83816-4 0  9999
2 18749  82.5154 195.2488 0016857 235.3305 124.6323 14.85527977 42047
COSMOS 1933             
1 18958U 88020A   26068.98787395  .00005456  00000+0  26704-3 0  9998
2 18958  82.5099 250.6165 0003890 179.4011 180.7228 15.17985258 50277
SL-3 R/B                
1 19046U 88032B   26069.19340183  .00006493  00000+0  30307-3 0  9990
2 19046  97.5196  52.4425 0024457 229.5819 130.3282 15.19917908 52184
SL-16 R/B               
1 19120U 88039B   26069.12123148 -.00000053  00000+0 -22013-5 0  9998
2 19120  71.0134  67.6348 0022815 333.7247  26.2719 14.19615448958442
COSMOS 1953             
1 19210U 88050A   26069.21481209  .00009900  00000+0  35460-3 0  9992
2 19210  82.5104 157.7190 0012465 120.7038 239.5431 15.28538815 37861
