[{"OBJECT_NAME":"SL-14 R/B","OBJECT_ID":"1986-006B","EPOCH":"2026-03-09T23:47:44.818080","MEAN_MOTION":14.8681534,"ECCENTRICITY":0.007505,"INCLINATION":82.5234,"RA_OF_ASC_NODE":259.4531,"ARG_OF_PERICENTER":271.7582,"MEAN_ANOMALY":87.504,"EPHEMERIS_TYPE":0,"CLASSIFICATION_TYPE":"U","NORAD_CAT_ID":16496,"ELEMENT_SET_NO":999,"REV_AT_EPOCH":14925,"BSTAR":8.383e-5,"MEAN_MOTION_DOT":8.11e-6,"MEAN_MOTION_DDOT":0},{"OBJECT_NAME":"COSMOS 1743","OBJECT_ID":"1986-034A","EPOCH":"2026-03-10T02:11:44.934720","MEAN_MOTION":15.58576552,"ECCENTRICITY":0.0001648,"INCLINATION":82.5297,"RA_OF_ASC_NODE":73.4092,"ARG_OF_PERICENTER":291.0253,"MEAN_ANOMALY":69.0827,"EPHEMERIS_TYPE":0,"CLASSIFICATION_TYPE":"U","NORAD_CAT_ID":16719,"ELEMENT_SET_NO":999,"REV_AT_EPOCH":18031,"BSTAR":0.0004699,"MEAN_MOTION_DOT":0.0003609,"MEAN_MOTION_DDOT":0},{"OBJECT_NAME":"SL-14 R/B","OBJECT_ID":"1986-046B","EPOCH":"2026-03-10T01:50:30.957216","MEAN_MOTION":14.85590716,"ECCENTRICITY":0.0021998,"INCLINATION":82.4784,"RA_OF_ASC_NODE":79.816,"ARG_OF_PERICENTER":223.998,"MEAN_ANOMALY":135.9486,"EPHEMERIS_TYPE":0,"CLASSIFICATION_TYPE":"U","NORAD_CAT_ID":16792,"ELEMENT_SET_NO":999,"REV_AT_EPOCH":12646,"BSTAR":6.1966e-5,"MEAN_MOTION_DOT":5.62e-6,"MEAN_MOTION_DDOT":0},{"OBJECT_NAME":"SL-14 R/B","OBJECT_ID":"1986-055B","EPOCH":"2026-03-10T03:12:37.653696","MEAN_MOTION":14.85643046,"ECCENTRICITY":0.0018153,"INCLINATION":82.5201,"RA_OF_ASC_NODE":126.2569,"ARG_OF_PERICENTER":334.9966,"MEAN_ANOMALY":54.8272,"EPHEMERIS_TYPE":0,"CLASSIFICATION_TYPE":"U","NORAD_CAT_ID":16882,"ELEMENT_SET_NO":999,"REV_AT_EPOCH":11943,"BSTAR":5.4744e-5,"MEAN_MOTION_DOT":4.99e-6,"MEAN_MOTION_DDOT":0},{"OBJECT_NAME":"AJISAI (EGS)","OBJECT_ID":"1986-061A","EPOCH":"2026-03-10T05:00:34.673760","MEAN_MOTION":12.44515638,"ECCENTRICITY":0.001127,"INCLINATION":50.0087,"RA_OF_ASC_NODE":91.7515,"ARG_OF_PERICENTER":288.3424,"MEAN_ANOMALY":192.0942,"EPHEMERIS_TYPE":0,"CLASSIFICATION_TYPE":"U","NORAD_CAT_ID":16908,"ELEMENT_SET_NO":999,"REV_AT_EPOCH":46806,"BSTAR":-1.664e-5,"MEAN_MOTION_DOT":-1.0e-6,"MEAN_MOTION_DDOT":0},{"OBJECT_NAME":"SL-14 R/B","OBJECT_ID":"1987-024B","EPOCH":"2026-03-10T02:38:24.597888","MEAN_MOTION":14.86132444,"ECCENTRICITY":0.0016687,"INCLINATION":82.5247,"RA_OF_ASC_NODE":92.3686,"ARG_OF_PERICENTER":258.3974,"MEAN_ANOMALY":101.5369,"EPHEMERIS_TYPE":0,"CLASSIFICATION_TYPE":"U","NORAD_CAT_ID":17567,"ELEMENT_SET_NO":999,"REV_AT_EPOCH":8819,"BSTAR":5.8787e-5,"MEAN_MOTION_DOT":5.4e-6,"MEAN_MOTION_DDOT":0},{"OBJECT_NAME":"COSMOS 1833","OBJECT_ID":"1987-027A","EPOCH":"2026-03-10T03:26:32.790912","MEAN_MOTION":14.13054713,"ECCENTRICITY":0.002425,"INCLINATION":70.9223,"RA_OF_ASC_NODE":325.0654,"ARG_OF_PERICENTER":213.9072,"MEAN_ANOMALY":146.05,"EPHEMERIS_TYPE":0,"CLASSIFICATION_TYPE":"U","NORAD_CAT_ID":17589,"ELEMENT_SET_NO":999,"REV_AT_EPOCH":1038,"BSTAR":-6.9432e-5,"MEAN_MOTION_DOT":-1.78e-6,"MEAN_MOTION_DDOT":0},{"OBJECT_NAME":"SL-16 R/B","OBJECT_ID":"1987-027B","EPOCH":"2026-03-09T23:23:27.613824","MEAN_MOTION":14.17165848,"ECCENTRICITY":0.0003434,"INCLINATION":71.0012,"RA_OF_ASC_NODE":275.8951,"ARG_OF_PERICENTER":142.063,"MEAN_ANOMALY":218.0736,"EPHEMERIS_TYPE":0,"CLASSIFICATION_TYPE":"U","NORAD_CAT_ID":17590,"ELEMENT_SET_NO":999,"REV_AT_EPOCH":1538,"BSTAR":7.0274e-5,"MEAN_MOTION_DOT":9.4e-7,"MEAN_MOTION_DDOT":0},{"OBJECT_NAME":"SL-14 R/B","OBJECT_ID":"1987-038B","EPOCH":"2026-03-10T02:31:29.121024","MEAN_MOTION":14.8536967,"ECCENTRICITY":0.0019718,"INCLINATION":82.5,"RA_OF_ASC_NODE":296.4165,"ARG_OF_PERICENTER":159.1105,"MEAN_ANOMALY":201.0922,"EPHEMERIS_TYPE":0,"CLASSIFICATION_TYPE":"U","NORAD_CAT_ID":17912,"ELEMENT_SET_NO":999,"REV_AT_EPOCH":7929,"BSTAR":5.6876e-5,"MEAN_MOTION_DOT":5.15e-6,"MEAN_MOTION_DDOT":0},{"OBJECT_NAME":"COSMOS 1844","OBJECT_ID":"1987-041A","EPOCH":"2026-03-10T02:34:40.331136","MEAN_MOTION":14.14552072,"ECCENTRICITY":0.0030046,"INCLINATION":70.8999,"RA_OF_ASC_NODE":33.2934,"ARG_OF_PERICENTER":17.1208,"MEAN_ANOMALY":343.092,"EPHEMERIS_TYPE":0,"CLASSIFICATION_TYPE":"U","NORAD_CAT_ID":17973,"ELEMENT_SET_NO":999,"REV_AT_EPOCH":364,"BSTAR":-5.6684e-5,"MEAN_MOTION_DOT":-1.58e-6,"MEAN_MOTION_DDOT":0},{"OBJECT_NAME":"SL-14 R/B","OBJECT_ID":"1987-055B","EPOCH":"2026-03-10T05:12:07.633728","MEAN_MOTION":14.85630376,"ECCENTRICITY":0.002112,"INCLINATION":82.5031,"RA_OF_ASC_NODE":348.5347,"ARG_OF_PERICENTER":16.0845,"MEAN_ANOMALY":344.1037,"EPHEMERIS_TYPE":0,"CLASSIFICATION_TYPE":"U","NORAD_CAT_ID":18153,"ELEMENT_SET_NO":999,"REV_AT_EPOCH":7001,"BSTAR":7.7508e-5,"MEAN_MOTION_DOT":6.98e-6,"MEAN_MOTION_DDOT":0},{"OBJECT_NAME":"COSMOS 1867","OBJECT_ID":"1987-060A","EPOCH":"2026-03-10T01:40:50.183328","MEAN_MOTION":14.31503117,"ECCENTRICITY":0.0014491,"INCLINATION":65.0112,"RA_OF_ASC_NODE":305.6406,"ARG_OF_PERICENTER":278.6825,"MEAN_ANOMALY":81.2618,"EPHEMERIS_TYPE":0,"CLASSIFICATION_TYPE":"U","NORAD_CAT_ID":18187,"ELEMENT_SET_NO":999,"REV_AT_EPOCH":1999,"BSTAR":3.547e-5,"MEAN_MOTION_DOT":-6.0e-8,"MEAN_MOTION_DDOT":0},{"OBJECT_NAME":"SL-14 R/B","OBJECT_ID":"1988-001B","EPOCH":"2026-03-09T19:23:27.101184","MEAN_MOTION":14.85527977,"ECCENTRICITY":0.00168577,"INCLINATION":82.5154,"RA_OF_ASC_NODE":195.2488,"ARG_OF_PERICENTER":235.3305,"MEAN_ANOMALY":124.6323,"EPHEMERIS_TYPE":0,"CLASSIFICATION_TYPE":"U","NORAD_CAT_ID":18749,"ELEMENT_SET_NO":999,"REV_AT_EPOCH":4204,"BSTAR":8.3816284e-5,"MEAN_MOTION_DOT":7.49e-6,"MEAN_MOTION_DDOT":0},{"OBJECT_NAME":"COSMOS 1933","OBJECT_ID":"1988-020A","EPOCH":"2026-03-09T23:42:32.309280","MEAN_MOTION":15.17985258,"ECCENTRICITY":0.000389,"INCLINATION":82.5099,"RA_OF_ASC_NODE":250.6165,"ARG_OF_PERICENTER":179.4011,"MEAN_ANOMALY":180.7228,"EPHEMERIS_TYPE":0,"CLASSIFICATION_TYPE":"U","NORAD_CAT_ID":18958,"ELEMENT_SET_NO":999,"REV_AT_EPOCH":5027,"BSTAR":0.00026704,"MEAN_MOTION_DOT":5.456e-5,"MEAN_MOTION_DDOT":0},{"OBJECT_NAME":"SL-3 R/B","OBJECT_ID":"1988-032B","EPOCH":"2026-03-10T04:38:29.918112","MEAN_MOTION":15.19917908,"ECCENTRICITY":0.0024457,"INCLINATION":97.5196,"RA_OF_ASC_NODE":52.4425,"ARG_OF_PERICENTER":229.5819,"MEAN_ANOMALY":130.3282,"EPHEMERIS_TYPE":0,"CLASSIFICATION_TYPE":"U","NORAD_CAT_ID":19046,"ELEMENT_SET_NO":999,"REV_AT_EPOCH":5218,"BSTAR":0.00030307,"MEAN_MOTION_DOT":6.493e-5,"MEAN_MOTION_DDOT":0},{"OBJECT_NAME":"SL-16 R/B","OBJECT_ID":"1988-039B","EPOCH":"2026-03-10T02:54:34.399872","MEAN_MOTION":14.19615448,"ECCENTRICITY":0.0022815,"INCLINATION":71.0134,"RA_OF_ASC_NODE":67.6348,"ARG_OF_PERICENTER":333.7247,"MEAN_ANOMALY":26.2719,"EPHEMERIS_TYPE":0,"CLASSIFICATION_TYPE":"U","NORAD_CAT_ID":19120,"ELEMENT_SET_NO":999,"REV_AT_EPOCH":95844,"BSTAR":-2.2013e-6,"MEAN_MOTION_DOT":-5.3e-7,"MEAN_MOTION_DDOT":0},{"OBJECT_NAME":"COSMOS 1953","OBJECT_ID":"1988-050A","EPOCH":"2026-03-10T05:09:19.764576","MEAN_MOTION":15.28538815,"ECCENTRICITY":0.0012465,"INCLINATION":82.5104,"RA_OF_ASC_NODE":157.719,"ARG_OF_PERICENTER":120.7038,"MEAN_ANOMALY":239.5431,"EPHEMERIS_TYPE":0,"CLASSIFICATION_TYPE":"U","NORAD_CAT_ID":19210,"ELEMENT_SET_NO":999,"REV_AT_EPOCH":3786,"BSTAR":0.0003546,"MEAN_MOTION_DOT":9.9e-5,"MEAN_MOTION_DDOT":0}]
